QIANFAN-81              
1 63167U 25046J   26027.48202352  .00000206  00000+0  30069-3 0  9991
2 63167  88.9796 315.1470 0015248 356.9387   3.1668 13.50969018 53660
QIANFAN-82              
1 63168U 25046K   26027.44279375  .00000273  00000+0  40448-3 0  9993
2 63168  88.9796 315.1951 0013604   4.5466 355.5807 13.50996507 53643
QIANFAN-83              
1 63169U 25046L   26027.46839503  .00000334  00000+0  41755-3 0  9991
2 63169  88.9796 314.8791 0014267 347.4527  12.6273 13.62000724 53823
QIANFAN-84              
1 63170U 25046M   26027.47024869  .00000241  00000+0  35496-3 0  9997
2 63170  88.9796 315.3246 0016443 359.7318   0.3822 13.51005664 53570
QIANFAN-85              
1 63171U 25046N   26027.31922998  .00000271  00000+0  40151-3 0  9998
2 63171  88.9796 315.2119 0013947   3.5629 356.5619 13.50995216 53620
QIANFAN-86              
1 63172U 25046P   26027.47566883  .00000272  00000+0  40295-3 0  9993
2 63172  88.9798 315.0590 0011966   8.5106 351.6246 13.50997239 53728
QIANFAN-87              
1 63173U 25046Q   26027.44707421  .00000281  00000+0  41693-3 0  9999
2 63173  88.9794 315.1718 0012450   3.7776 356.3467 13.50994714 53651
QIANFAN-88              
1 63174U 25046R   26027.46322167  .00000256  00000+0  37818-3 0  9998
2 63174  88.9797 315.1258 0013117  11.1177 349.0262 13.50989247 53683
